SALSAT                  
1 46495U 20068K   26139.94978944  .00005743  00000+0  20444-3 0  9994
2 46495  97.8857 141.3065 0011076  49.8276 310.3931 15.29339301311040
ICEYE-X6                
1 46497U 20068M   26140.19014022  .00002244  00000+0  16566-3 0  9996
2 46497  98.0971 132.5287 0007247 172.9047 187.2281 15.04354179309026
NETSAT-4                
1 46504U 20068U   26139.98609416  .00013384  00000+0  30710-3 0  9991
2 46504  97.8614 145.9841 0007359  71.8774 288.3273 15.42837670311423
NETSAT-3                
1 46505U 20068V   26139.97032756  .00014502  00000+0  34632-3 0  9998
2 46505  97.8665 144.2200 0007455  84.7945 275.4151 15.41613605311332
NETSAT-1                
1 46506U 20068W   26139.96068397  .00009635  00000+0  29636-3 0  9997
2 46506  97.8752 138.8676 0006991 104.5342 255.6675 15.33884394310978
NETSAT-2                
1 46507U 20068X   26139.93289002  .00017131  00000+0  36879-3 0  9990
2 46507  97.8630 145.7245 0006258  94.9408 265.2554 15.44683915311370
TIANQI-6                
1 46810U 20076D   26139.65233077  .00002057  00000+0  13642-3 0  9990
2 46810  34.9985 223.5663 0010979 276.7766  83.1694 15.06977859304277
KSM1-C                  
1 46906U 20081B   26140.16479853  .00006163  00000+0  23599-3 0  9998
2 46906  36.8937 231.8807 0002453 309.6657  50.3875 15.26242478304884
KSM1-D                  
1 46907U 20081C   26140.19552581  .00004779  00000+0  19490-3 0  9998
2 46907  36.8969 240.1682 0003704   6.4449 353.6347 15.24297992304821
KSM1-A                  
1 46912U 20081H   26140.21934929  .00005799  00000+0  22739-3 0  9990
2 46912  36.8957 233.7270 0001837  88.1848 271.9111 15.25491054304906
R2                      
1 46913U 20081J   26139.96947296  .00005460  00000+0  21745-3 0  9993
2 46913  36.8970 235.1075 0006324  38.8854 321.2349 15.24993097307678
KSM1-B                  
1 46914U 20081K   26139.99864117  .00004242  00000+0  17452-3 0  9994
2 46914  36.9018 241.9172 0005028  33.3889 326.7176 15.24092306307888
GONETS-M 20             
1 47227U 20091A   26140.15414735 -.00000003  00000+0 -91529-4 0  9991
2 47227  82.5028 319.8668 0020087 240.4834 119.4243 12.42892853247597
GONETS-M 21             
1 47228U 20091B   26140.20836748 -.00000019  00000+0 -20452-3 0  9993
2 47228  82.4953 318.5571 0013809 254.9099 105.0453 12.42885080247598
GONETS-M 22             
1 47229U 20091C   26140.18157747 -.00000033  00000+0 -31178-3 0  9999
2 47229  82.5011 319.4595 0020987 235.5527 124.3569 12.42891053247541
CUBEL                   
1 47448U 21006AM  26140.10635301  .00006092  00000+0  15216-3 0  9992
2 47448  97.2350 190.9693 0004780 272.6135  87.4565 15.40516092295438
ARKTIKA-M 1             
1 47719U 21016A   26139.08335878 -.00000154  00000+0  00000+0 0  9990
2 47719  63.2280  61.8651 7277473 269.7896  14.7864  2.00632267 38203
STARLINK-2342           
1 47883U 21021Z   26140.12810480  .00063142  00000+0  91288-3 0  9999
2 47883  53.1547 286.0335 0003131 261.0115  99.0542 15.55352861287500
GRUS-1B                 
1 47934U 21022C   26140.13964562  .00000967  00000+0  84499-4 0  9992
2 47934  97.5404  24.2552 0016940  57.2653 303.0200 14.98905145281696
UNISAT-7                
1 47945U 21022P   26140.15524499  .00009903  00000+0  25283-3 0  9991
2 47945  97.3912  44.8016 0009703 161.9486 198.2106 15.39646214285541
GLOBAL-9                
1 47971U 21023G   26140.14632580  .00015923  00000+0  33278-3 0  9993
2 47971  44.9827  47.9908 0002997 166.5685 193.5285 15.45375700290602
AII-BRAVO               
1 48270U 21034C   26140.06624796  .00002121  00000+0  16105-3 0  9995
2 48270  97.5636 195.6218 0006136  23.0271 337.1229 15.03233775275391
TYVAK-182A              
1 48271U 21034D   26140.15894089  .00003315  00000+0  23237-3 0  9990
2 48271  97.5740 199.5667 0007603  74.3331 285.8735 15.05870600275617
CSS (TIANHE)            
1 48274U 21035A   26140.19765948  .00010259  00000+0  12383-3 0  9994
2 48274  41.4675 132.2031 0007444 264.8771  95.1218 15.60688170288792
TYVAK-0130              
1 48606U 21041BF  26140.03877866  .00004477  00000+0  17870-3 0  9997
2 48606  52.9945 156.7657 0011437  80.8936 279.3354 15.27139428276085
HAIYANG-2D              
1 48621U 21043A   26140.16982162 -.00000052  00000+0  26107-4 0  9996
2 48621  66.0002  14.4550 0011380 272.3630  87.6136 13.83373384252678
2021-050D               
1 48843U 21050D   26140.21844322  .00004768  00000+0  20554-3 0  9997
2 48843  97.3338 216.8957 0005670  20.8618 339.2849 15.23018567274709
TYVAK-0173              
1 48892U 21059P   26140.17415303  .00001127  00000+0  14674-3 0  9990
2 48892  96.0086 223.4950 0010880 119.8015 240.4286 14.81783279264096
