OBJECT_NAME,OBJECT_ID,EPOCH,MEAN_MOTION,ECCENTRICITY,INCLINATION,RA_OF_ASC_NODE,ARG_OF_PERICENTER,MEAN_ANOMALY,EPHEMERIS_TYPE,CLASSIFICATION_TYPE,NORAD_CAT_ID,ELEMENT_SET_NO,REV_AT_EPOCH,BSTAR,MEAN_MOTION_DOT,MEAN_MOTION_DDOT
SALSAT,2020-068K,2026-05-19T22:47:41.807616,15.29339301,.0011076,97.8857,141.3065,49.8276,310.3931,0,U,46495,999,31104,.20444E-3,.5743E-4,0
ICEYE-X6,2020-068M,2026-05-20T04:33:48.115008,15.04354179,.0007247,98.0971,132.5287,172.9047,187.2281,0,U,46497,999,30902,.16566E-3,.2244E-4,0
NETSAT-4,2020-068U,2026-05-19T23:39:58.535424,15.42837670,.0007359,97.8614,145.9841,71.8774,288.3273,0,U,46504,999,31142,.3071E-3,.13384E-3,0
NETSAT-3,2020-068V,2026-05-19T23:17:16.301184,15.41613605,.0007455,97.8665,144.2200,84.7945,275.4151,0,U,46505,999,31133,.34632E-3,.14502E-3,0
NETSAT-1,2020-068W,2026-05-19T23:03:23.095008,15.33884394,.0006991,97.8752,138.8676,104.5342,255.6675,0,U,46506,999,31097,.29636E-3,.9635E-4,0
NETSAT-2,2020-068X,2026-05-19T22:23:21.697728,15.44683915,.0006258,97.8630,145.7245,94.9408,265.2554,0,U,46507,999,31137,.36879E-3,.17131E-3,0
TIANQI-6,2020-076D,2026-05-19T15:39:21.378528,15.06977859,.00109794,34.9985,223.5663,276.7766,83.1694,0,U,46810,999,30427,.13641742E-3,.2057E-4,0
KSM1-C,2020-081B,2026-05-20T03:57:18.592992,15.26242478,.0002453,36.8937,231.8807,309.6657,50.3875,0,U,46906,999,30488,.23599E-3,.6163E-4,0
KSM1-D,2020-081C,2026-05-20T04:41:33.429984,15.24297992,.0003704,36.8969,240.1682,6.4449,353.6347,0,U,46907,999,30482,.1949E-3,.4779E-4,0
KSM1-A,2020-081H,2026-05-20T05:15:51.778656,15.25491054,.0001837,36.8957,233.7270,88.1848,271.9111,0,U,46912,999,30490,.22739E-3,.5799E-4,0
R2,2020-081J,2026-05-19T23:16:02.463744,15.24993097,.0006324,36.8970,235.1075,38.8854,321.2349,0,U,46913,999,30767,.21745E-3,.546E-4,0
KSM1-B,2020-081K,2026-05-19T23:58:02.597088,15.24092306,.0005028,36.9018,241.9172,33.3889,326.7176,0,U,46914,999,30788,.17452E-3,.4242E-4,0
GONETS-M 20,2020-091A,2026-05-20T03:41:58.331040,12.42892853,.0020087,82.5028,319.8668,240.4834,119.4243,0,U,47227,999,24759,-.91529E-4,-.3E-7,0
GONETS-M 21,2020-091B,2026-05-20T05:00:02.950272,12.42885080,.0013809,82.4953,318.5571,254.9099,105.0453,0,U,47228,999,24759,-.20452E-3,-.19E-6,0
GONETS-M 22,2020-091C,2026-05-20T04:21:28.293408,12.42891053,.0020987,82.5011,319.4595,235.5527,124.3569,0,U,47229,999,24754,-.31178E-3,-.33E-6,0
CUBEL,2021-006AM,2026-05-20T02:33:08.900064,15.40516092,.000478,97.2350,190.9693,272.6135,87.4565,0,U,47448,999,29543,.15216E-3,.6092E-4,0
ARKTIKA-M 1,2021-016A,2026-05-19T02:00:02.198592,2.00632267,.72774738,63.2280,61.8651,269.7896,14.7864,0,U,47719,999,3820,0,-.154E-5,0
STARLINK-2342,2021-021Z,2026-05-20T03:04:28.254720,15.55352861,.0003131,53.1547,286.0335,261.0115,99.0542,0,U,47883,999,28750,.91288E-3,.63142E-3,0
GRUS-1B,2021-022C,2026-05-20T03:21:05.381568,14.98905145,.001694,97.5404,24.2552,57.2653,303.0200,0,U,47934,999,28169,.84499E-4,.967E-5,0
UNISAT-7,2021-022P,2026-05-20T03:43:33.167136,15.39646214,.0009703,97.3912,44.8016,161.9486,198.2106,0,U,47945,999,28554,.25283E-3,.9903E-4,0
GLOBAL-9,2021-023G,2026-05-20T03:30:42.549120,15.45375700,.0002997,44.9827,47.9908,166.5685,193.5285,0,U,47971,999,29060,.33278E-3,.15923E-3,0
AII-BRAVO,2021-034C,2026-05-20T01:35:23.823744,15.03233775,.0006136,97.5636,195.6218,23.0271,337.1229,0,U,48270,999,27539,.16105E-3,.2121E-4,0
TYVAK-182A,2021-034D,2026-05-20T03:48:52.492896,15.05870600,.0007603,97.5740,199.5667,74.3331,285.8735,0,U,48271,999,27561,.23237E-3,.3315E-4,0
CSS (TIANHE),2021-035A,2026-05-20T04:44:37.779072,15.60688170,.0007444,41.4675,132.2031,264.8771,95.1218,0,U,48274,999,28879,.12383E-3,.10259E-3,0
TYVAK-0130,2021-041BF,2026-05-20T00:55:50.476224,15.27139428,.0011437,52.9945,156.7657,80.8936,279.3354,0,U,48606,999,27608,.1787E-3,.4477E-4,0
HAIYANG-2D,2021-043A,2026-05-20T04:04:32.587968,13.83373384,.001138,66.0002,14.4550,272.3630,87.6136,0,U,48621,999,25267,.26107E-4,-.52E-6,0
2021-050D,2021-050D,2026-05-20T05:14:33.494208,15.23018567,.000567,97.3338,216.8957,20.8618,339.2849,0,U,48843,999,27470,.20554E-3,.4768E-4,0
TYVAK-0173,2021-059P,2026-05-20T04:10:46.821792,14.81783279,.001088,96.0086,223.4950,119.8015,240.4286,0,U,48892,999,26409,.14674E-3,.1127E-4,0
